[
  {
    "OBJECT_NAME": "STARLINK-11277 [DTC]",
    "OBJECT_ID": "24171F",
    "EPOCH": "2025-11-11T06:47:32.189280",
    "MEAN_MOTION": 15.69711172,
    "ECCENTRICITY": 0.0001031,
    "INCLINATION": 53.159,
    "RA_OF_ASC_NODE": 39.8172,
    "ARG_OF_PERICENTER": 117.0372,
    "MEAN_ANOMALY": 243.0751,
    "EPHEMERIS_TYPE": 0,
    "CLASSIFICATION_TYPE": "U",
    "NORAD_CAT_ID": 61205,
    "ELEMENT_SET_NO": 999,
    "REV_AT_EPOCH": 6580,
    "BSTAR": 2.3728e-05,
    "MEAN_MOTION_DOT": 2.287e-05,
    "MEAN_MOTION_DDOT": 0.0,
    "TLE_LINE1": "1 61205U 24171F   25315.28301145  .00002287  00000+0  23728-4 0  9993",
    "TLE_LINE2": "2 61205  53.1590  39.8172 0001031 117.0372 243.0751 15.69711172 65806",
    "COMMENT": "Grouped by shell and plane from TLE"
  },
  {
    "OBJECT_NAME": "STARLINK-11091 [DTC]",
    "OBJECT_ID": "24171H",
    "EPOCH": "2025-11-11T06:54:36.095328",
    "MEAN_MOTION": 15.69720087,
    "ECCENTRICITY": 9.49e-05,
    "INCLINATION": 53.1622,
    "RA_OF_ASC_NODE": 39.85,
    "ARG_OF_PERICENTER": 77.9172,
    "MEAN_ANOMALY": 282.1952,
    "EPHEMERIS_TYPE": 0,
    "CLASSIFICATION_TYPE": "U",
    "NORAD_CAT_ID": 61207,
    "ELEMENT_SET_NO": 999,
    "REV_AT_EPOCH": 6580,
    "BSTAR": 4.9573e-07,
    "MEAN_MOTION_DOT": -5.28e-06,
    "MEAN_MOTION_DDOT": 0.0,
    "TLE_LINE1": "1 61207U 24171H   25315.28791777 -.00000528  00000+0  49573-6 0  9994",
    "TLE_LINE2": "2 61207  53.1622  39.8500 0000949  77.9172 282.1952 15.69720087 65800",
    "COMMENT": "Grouped by shell and plane from TLE"
  },
  {
    "OBJECT_NAME": "STARLINK-11304 [DTC]",
    "OBJECT_ID": "24171K",
    "EPOCH": "2025-11-11T06:26:20.732064",
    "MEAN_MOTION": 15.69703901,
    "ECCENTRICITY": 9.11e-05,
    "INCLINATION": 53.1617,
    "RA_OF_ASC_NODE": 39.7164,
    "ARG_OF_PERICENTER": 83.9943,
    "MEAN_ANOMALY": 276.1179,
    "EPHEMERIS_TYPE": 0,
    "CLASSIFICATION_TYPE": "U",
    "NORAD_CAT_ID": 61209,
    "ELEMENT_SET_NO": 999,
    "REV_AT_EPOCH": 6671,
    "BSTAR": 2.868e-05,
    "MEAN_MOTION_DOT": 2.887e-05,
    "MEAN_MOTION_DDOT": 0.0,
    "TLE_LINE1": "1 61209U 24171K   25315.26829551  .00002887  00000+0  28680-4 0  9999",
    "TLE_LINE2": "2 61209  53.1617  39.7164 0000911  83.9943 276.1179 15.69703901 66714",
    "COMMENT": "Grouped by shell and plane from TLE"
  },
  {
    "OBJECT_NAME": "STARLINK-11384 [DTC]",
    "OBJECT_ID": "24220A",
    "EPOCH": "2025-11-11T06:20:18.214944",
    "MEAN_MOTION": 15.70883753,
    "ECCENTRICITY": 7.03e-05,
    "INCLINATION": 42.9992,
    "RA_OF_ASC_NODE": 37.2849,
    "ARG_OF_PERICENTER": 230.6586,
    "MEAN_ANOMALY": 129.4219,
    "EPHEMERIS_TYPE": 0,
    "CLASSIFICATION_TYPE": "U",
    "NORAD_CAT_ID": 62088,
    "ELEMENT_SET_NO": 999,
    "REV_AT_EPOCH": 5642,
    "BSTAR": 0.0025463000000000005,
    "MEAN_MOTION_DOT": 0.00340666,
    "MEAN_MOTION_DDOT": 0.0,
    "TLE_LINE1": "1 62088U 24220A   25315.26409971  .00340666  00000+0  25463-2 0  9994",
    "TLE_LINE2": "2 62088  42.9992  37.2849 0000703 230.6586 129.4219 15.70883753 56426",
    "COMMENT": "Grouped by shell and plane from TLE"
  },
  {
    "OBJECT_NAME": "STARLINK-11379 [DTC]",
    "OBJECT_ID": "24220B",
    "EPOCH": "2025-11-11T06:12:39.658176",
    "MEAN_MOTION": 15.70870374,
    "ECCENTRICITY": 0.0001524,
    "INCLINATION": 42.9992,
    "RA_OF_ASC_NODE": 37.2439,
    "ARG_OF_PERICENTER": 258.3822,
    "MEAN_ANOMALY": 101.6875,
    "EPHEMERIS_TYPE": 0,
    "CLASSIFICATION_TYPE": "U",
    "NORAD_CAT_ID": 62089,
    "ELEMENT_SET_NO": 999,
    "REV_AT_EPOCH": 5632,
    "BSTAR": 0.0025212000000000004,
    "MEAN_MOTION_DOT": 0.00336951,
    "MEAN_MOTION_DDOT": 0.0,
    "TLE_LINE1": "1 62089U 24220B   25315.25879234  .00336951  00000+0  25212-2 0  9991",
    "TLE_LINE2": "2 62089  42.9992  37.2439 0001524 258.3822 101.6875 15.70870374 56328",
    "COMMENT": "Grouped by shell and plane from TLE"
  },
  {
    "OBJECT_NAME": "STARLINK-11387 [DTC]",
    "OBJECT_ID": "24220C",
    "EPOCH": "2025-11-11T06:05:00.697056",
    "MEAN_MOTION": 15.70871858,
    "ECCENTRICITY": 0.0001475,
    "INCLINATION": 42.9975,
    "RA_OF_ASC_NODE": 37.1967,
    "ARG_OF_PERICENTER": 207.3971,
    "MEAN_ANOMALY": 152.6819,
    "EPHEMERIS_TYPE": 0,
    "CLASSIFICATION_TYPE": "U",
    "NORAD_CAT_ID": 62090,
    "ELEMENT_SET_NO": 999,
    "REV_AT_EPOCH": 5642,
    "BSTAR": 0.0021963,
    "MEAN_MOTION_DOT": 0.00291884,
    "MEAN_MOTION_DDOT": 0.0,
    "TLE_LINE1": "1 62090U 24220C   25315.25348029  .00291884  00000+0  21963-2 0  9990",
    "TLE_LINE2": "2 62090  42.9975  37.1967 0001475 207.3971 152.6819 15.70871858 56423",
    "COMMENT": "Grouped by shell and plane from TLE"
  },
  {
    "OBJECT_NAME": "STARLINK-11389 [DTC]",
    "OBJECT_ID": "24220D",
    "EPOCH": "2025-11-11T05:57:22.137696",
    "MEAN_MOTION": 15.71026181,
    "ECCENTRICITY": 0.000146,
    "INCLINATION": 42.9977,
    "RA_OF_ASC_NODE": 37.1564,
    "ARG_OF_PERICENTER": 230.8827,
    "MEAN_ANOMALY": 129.1911,
    "EPHEMERIS_TYPE": 0,
    "CLASSIFICATION_TYPE": "U",
    "NORAD_CAT_ID": 62091,
    "ELEMENT_SET_NO": 999,
    "REV_AT_EPOCH": 5632,
    "BSTAR": 0.0023351,
    "MEAN_MOTION_DOT": 0.0031319,
    "MEAN_MOTION_DDOT": 0.0,
    "TLE_LINE1": "1 62091U 24220D   25315.24817289  .00313190  00000+0  23351-2 0  9997",
    "TLE_LINE2": "2 62091  42.9977  37.1564 0001460 230.8827 129.1911 15.71026181 56327",
    "COMMENT": "Grouped by shell and plane from TLE"
  },
  {
    "OBJECT_NAME": "STARLINK-11388 [DTC]",
    "OBJECT_ID": "24220E",
    "EPOCH": "2025-11-11T05:49:43.453056",
    "MEAN_MOTION": 15.71003303,
    "ECCENTRICITY": 0.0001665,
    "INCLINATION": 42.996,
    "RA_OF_ASC_NODE": 37.1131,
    "ARG_OF_PERICENTER": 246.0618,
    "MEAN_ANOMALY": 114.0075,
    "EPHEMERIS_TYPE": 0,
    "CLASSIFICATION_TYPE": "U",
    "NORAD_CAT_ID": 62092,
    "ELEMENT_SET_NO": 999,
    "REV_AT_EPOCH": 5632,
    "BSTAR": 0.0021327,
    "MEAN_MOTION_DOT": 0.00284732,
    "MEAN_MOTION_DDOT": 0.0,
    "TLE_LINE1": "1 62092U 24220E   25315.24286404  .00284732  00000+0  21327-2 0  9997",
    "TLE_LINE2": "2 62092  42.9960  37.1131 0001665 246.0618 114.0075 15.71003303 56329",
    "COMMENT": "Grouped by shell and plane from TLE"
  },
  {
    "OBJECT_NAME": "STARLINK-11345 [DTC]",
    "OBJECT_ID": "24220F",
    "EPOCH": "2025-11-11T07:13:38.316288",
    "MEAN_MOTION": 15.70863596,
    "ECCENTRICITY": 0.0003664,
    "INCLINATION": 42.9981,
    "RA_OF_ASC_NODE": 36.6853,
    "ARG_OF_PERICENTER": 287.1526,
    "MEAN_ANOMALY": 72.894,
    "EPHEMERIS_TYPE": 0,
    "CLASSIFICATION_TYPE": "U",
    "NORAD_CAT_ID": 62093,
    "ELEMENT_SET_NO": 999,
    "REV_AT_EPOCH": 5633,
    "BSTAR": 0.0024565,
    "MEAN_MOTION_DOT": 0.0032787,
    "MEAN_MOTION_DDOT": 0.0,
    "TLE_LINE1": "1 62093U 24220F   25315.30113792  .00327870  00000+0  24565-2 0  9992",
    "TLE_LINE2": "2 62093  42.9981  36.6853 0003664 287.1526  72.8940 15.70863596 56333",
    "COMMENT": "Grouped by shell and plane from TLE"
  },
  {
    "OBJECT_NAME": "STARLINK-11381 [DTC]",
    "OBJECT_ID": "24220G",
    "EPOCH": "2025-11-11T05:34:25.895424",
    "MEAN_MOTION": 15.71047227,
    "ECCENTRICITY": 0.0001825,
    "INCLINATION": 42.9978,
    "RA_OF_ASC_NODE": 37.0275,
    "ARG_OF_PERICENTER": 223.4097,
    "MEAN_ANOMALY": 136.6628,
    "EPHEMERIS_TYPE": 0,
    "CLASSIFICATION_TYPE": "U",
    "NORAD_CAT_ID": 62094,
    "ELEMENT_SET_NO": 999,
    "REV_AT_EPOCH": 5632,
    "BSTAR": 0.0031092999999999997,
    "MEAN_MOTION_DOT": 0.00423184,
    "MEAN_MOTION_DDOT": 0.0,
    "TLE_LINE1": "1 62094U 24220G   25315.23224416  .00423184  00000+0  31093-2 0  9990",
    "TLE_LINE2": "2 62094  42.9978  37.0275 0001825 223.4097 136.6628 15.71047227 56323",
    "COMMENT": "Grouped by shell and plane from TLE"
  },
  {
    "OBJECT_NAME": "STARLINK-11369 [DTC]",
    "OBJECT_ID": "24220H",
    "EPOCH": "2025-11-11T06:58:20.598816",
    "MEAN_MOTION": 15.70844401,
    "ECCENTRICITY": 0.0001068,
    "INCLINATION": 42.9996,
    "RA_OF_ASC_NODE": 36.6031,
    "ARG_OF_PERICENTER": 215.8426,
    "MEAN_ANOMALY": 144.237,
    "EPHEMERIS_TYPE": 0,
    "CLASSIFICATION_TYPE": "U",
    "NORAD_CAT_ID": 62095,
    "ELEMENT_SET_NO": 999,
    "REV_AT_EPOCH": 5643,
    "BSTAR": 0.0027617,
    "MEAN_MOTION_DOT": 0.00370245,
    "MEAN_MOTION_DDOT": 0.0,
    "TLE_LINE1": "1 62095U 24220H   25315.29051619  .00370245  00000+0  27617-2 0  9996",
    "TLE_LINE2": "2 62095  42.9996  36.6031 0001068 215.8426 144.2370 15.70844401 56438",
    "COMMENT": "Grouped by shell and plane from TLE"
  },
  {
    "OBJECT_NAME": "STARLINK-11303 [DTC]",
    "OBJECT_ID": "24220J",
    "EPOCH": "2025-11-11T06:50:41.977248",
    "MEAN_MOTION": 15.70896799,
    "ECCENTRICITY": 0.0003098,
    "INCLINATION": 42.9993,
    "RA_OF_ASC_NODE": 36.5604,
    "ARG_OF_PERICENTER": 284.0604,
    "MEAN_ANOMALY": 75.992,
    "EPHEMERIS_TYPE": 0,
    "CLASSIFICATION_TYPE": "U",
    "NORAD_CAT_ID": 62096,
    "ELEMENT_SET_NO": 999,
    "REV_AT_EPOCH": 5643,
    "BSTAR": 0.0026836,
    "MEAN_MOTION_DOT": 0.00360113,
    "MEAN_MOTION_DDOT": 0.0,
    "TLE_LINE1": "1 62096U 24220J   25315.28520807  .00360113  00000+0  26836-2 0  9991",
    "TLE_LINE2": "2 62096  42.9993  36.5604 0003098 284.0604  75.9920 15.70896799 56430",
    "COMMENT": "Grouped by shell and plane from TLE"
  },
  {
    "OBJECT_NAME": "STARLINK-11367 [DTC]",
    "OBJECT_ID": "24220K",
    "EPOCH": "2025-11-11T05:11:29.869152",
    "MEAN_MOTION": 15.70948862,
    "ECCENTRICITY": 0.0001983,
    "INCLINATION": 42.9975,
    "RA_OF_ASC_NODE": 36.8986,
    "ARG_OF_PERICENTER": 242.585,
    "MEAN_ANOMALY": 117.4816,
    "EPHEMERIS_TYPE": 0,
    "CLASSIFICATION_TYPE": "U",
    "NORAD_CAT_ID": 62097,
    "ELEMENT_SET_NO": 999,
    "REV_AT_EPOCH": 5642,
    "BSTAR": 0.001665,
    "MEAN_MOTION_DOT": 0.00219955,
    "MEAN_MOTION_DDOT": 0.0,
    "TLE_LINE1": "1 62097U 24220K   25315.21631793  .00219955  00000+0  16650-2 0  9992",
    "TLE_LINE2": "2 62097  42.9975  36.8986 0001983 242.5850 117.4816 15.70948862 56424",
    "COMMENT": "Grouped by shell and plane from TLE"
  },
  {
    "OBJECT_NAME": "STARLINK-11386 [DTC]",
    "OBJECT_ID": "24220L",
    "EPOCH": "2025-11-11T06:35:24.341856",
    "MEAN_MOTION": 15.70894759,
    "ECCENTRICITY": 0.0001239,
    "INCLINATION": 42.9997,
    "RA_OF_ASC_NODE": 36.4751,
    "ARG_OF_PERICENTER": 243.9355,
    "MEAN_ANOMALY": 116.1385,
    "EPHEMERIS_TYPE": 0,
    "CLASSIFICATION_TYPE": "U",
    "NORAD_CAT_ID": 62098,
    "ELEMENT_SET_NO": 999,
    "REV_AT_EPOCH": 5633,
    "BSTAR": 0.0026682,
    "MEAN_MOTION_DOT": 0.00357904,
    "MEAN_MOTION_DDOT": 0.0,
    "TLE_LINE1": "1 62098U 24220L   25315.27458729  .00357904  00000+0  26682-2 0  9998",
    "TLE_LINE2": "2 62098  42.9997  36.4751 0001239 243.9355 116.1385 15.70894759 56336",
    "COMMENT": "Grouped by shell and plane from TLE"
  },
  {
    "OBJECT_NAME": "STARLINK-11380 [DTC]",
    "OBJECT_ID": "24220M",
    "EPOCH": "2025-11-11T06:27:45.805824",
    "MEAN_MOTION": 15.71032902,
    "ECCENTRICITY": 0.0001588,
    "INCLINATION": 42.9981,
    "RA_OF_ASC_NODE": 36.4322,
    "ARG_OF_PERICENTER": 231.9712,
    "MEAN_ANOMALY": 128.1012,
    "EPHEMERIS_TYPE": 0,
    "CLASSIFICATION_TYPE": "U",
    "NORAD_CAT_ID": 62099,
    "ELEMENT_SET_NO": 999,
    "REV_AT_EPOCH": 5633,
    "BSTAR": 0.0024383,
    "MEAN_MOTION_DOT": 0.00327712,
    "MEAN_MOTION_DDOT": 0.0,
    "TLE_LINE1": "1 62099U 24220M   25315.26928016  .00327712  00000+0  24383-2 0  9999",
    "TLE_LINE2": "2 62099  42.9981  36.4322 0001588 231.9712 128.1012 15.71032902 56330",
    "COMMENT": "Grouped by shell and plane from TLE"
  }
]